[{"OBJECT_NAME":"SITRO-AIS 21","OBJECT_ID":"2024-199E","EPOCH":"2026-03-09T22:38:47.668992","MEAN_MOTION":14.94747634,"ECCENTRICITY":0.00136926,"INCLINATION":97.333,"RA_OF_ASC_NODE":273.2344,"ARG_OF_PERICENTER":42.1108,"MEAN_ANOMALY":318.1163,"EPHEMERIS_TYPE":0,"CLASSIFICATION_TYPE":"U","NORAD_CAT_ID":61739,"ELEMENT_SET_NO":999,"REV_AT_EPOCH":11692,"BSTAR":0.00018121744,"MEAN_MOTION_DOT":1.92e-5,"MEAN_MOTION_DDOT":0},{"OBJECT_NAME":"STARLINK-36211","OBJECT_ID":"2025-304AC","EPOCH":"2026-03-09T16:18:16.009344","MEAN_MOTION":14.98335083,"ECCENTRICITY":0.00034467,"INCLINATION":70.0017,"RA_OF_ASC_NODE":174.4561,"ARG_OF_PERICENTER":278.5173,"MEAN_ANOMALY":81.5596,"EPHEMERIS_TYPE":0,"CLASSIFICATION_TYPE":"U","NORAD_CAT_ID":67218,"ELEMENT_SET_NO":999,"REV_AT_EPOCH":1385,"BSTAR":0.00014363061,"MEAN_MOTION_DOT":1.621e-5,"MEAN_MOTION_DDOT":0}]
